{"type": "FeatureCollection", "features": [ {"type": "Feature", "properties": {"norad_id": 34875, "name": "COSMOS 2251 DEB", "group": "cosmos-2251-debris", "lat": 20.377045927854187, "lon": -40.93469978178128, "alt_km": 732.5836617028517, "timestamp": "2025-12-19T16:54:44.658645+00:00", "meta": {"OBJECT_NAME": "COSMOS 2251 DEB", "OBJECT_ID": "1993-036ACN", "EPOCH": "2025-12-18T20:59:26.678976", "MEAN_MOTION": 14.48946121, "ECCENTRICITY": 0.00162292, "INCLINATION": 74.0436, "RA_OF_ASC_NODE": 146.7205, "ARG_OF_PERICENTER": 270.0148, "MEAN_ANOMALY": 240.7706, "EPHEMERIS_TYPE": 0, "CLASSIFICATION_TYPE": "U", "NORAD_CAT_ID": 34875, "ELEMENT_SET_NO": 999, "REV_AT_EPOCH": 87844, "BSTAR": 0.00037887223, "MEAN_MOTION_DOT": 1.41e-05, "MEAN_MOTION_DDOT": 0}, "tle": {"line1": "1 34875U 93036ACN 25352.87461434  .00001410  00000+0  37887-3 0  9993", "line2": "2 34875  74.0436 146.7205 0016229 270.0148 240.7706 14.48946121878447"}}, "geometry": {"type": "Point", "coordinates": [-40.93469978178128, 20.377045927854187]}}, {"type": "Feature", "properties": {"norad_id": 34878, "name": "COSMOS 2251 DEB", "group": "cosmos-2251-debris", "lat": -4.649088168974169, "lon": -142.38596237734484, "alt_km": 1412.1493417150969, "timestamp": "2025-12-19T16:54:44.658656+00:00", "meta": {"OBJECT_NAME": "COSMOS 2251 DEB", "OBJECT_ID": "1993-036ACR", "EPOCH": "2025-12-18T11:43:50.154816", "MEAN_MOTION": 13.44198549, "ECCENTRICITY": 0.04355423, "INCLINATION": 73.9648, "RA_OF_ASC_NODE": 38.2023, "ARG_OF_PERICENTER": 20.5933, "MEAN_ANOMALY": 41.1535, "EPHEMERIS_TYPE": 0, "CLASSIFICATION_TYPE": "U", "NORAD_CAT_ID": 34878, "ELEMENT_SET_NO": 999, "REV_AT_EPOCH": 81350, "BSTAR": 0.00058920549, "MEAN_MOTION_DOT": 5.85e-06, "MEAN_MOTION_DDOT": 0}, "tle": {"line1": "1 34878U 93036ACR 25352.48877494  .00000585  00000+0  58921-3 0  9994", "line2": "2 34878  73.9648  38.2023 0435542  20.5933  41.1535 13.44198549813506"}}, "geometry": {"type": "Point", "coordinates": [-142.38596237734484, -4.649088168974169]}}, {"type": "Feature", "properties": {"norad_id": 34882, "name": "COSMOS 2251 DEB", "group": "cosmos-2251-debris", "lat": 56.610635656402884, "lon": -122.00120153597604, "alt_km": 674.3147457082696, "timestamp": "2025-12-19T16:54:44.658666+00:00", "meta": {"OBJECT_NAME": "COSMOS 2251 DEB", "OBJECT_ID": "1993-036ACV", "EPOCH": "2025-12-18T01:12:56.345760", "MEAN_MOTION": 14.61607051, "ECCENTRICITY": 0.00830708, "INCLINATION": 74.0456, "RA_OF_ASC_NODE": 215.4368, "ARG_OF_PERICENTER": 341.1734, "MEAN_ANOMALY": 18.6364, "EPHEMERIS_TYPE": 0, "CLASSIFICATION_TYPE": "U", "NORAD_CAT_ID": 34882, "ELEMENT_SET_NO": 999, "REV_AT_EPOCH": 88602, "BSTAR": 0.00011703078, "MEAN_MOTION_DOT": 5.78e-06, "MEAN_MOTION_DDOT": 0}, "tle": {"line1": "1 34882U 93036ACV 25352.05065215  .00000578  00000+0  11703-3 0  9991", "line2": "2 34882  74.0456 215.4368 0083070 341.1734  18.6364 14.61607051886026"}}, "geometry": {"type": "Point", "coordinates": [-122.00120153597604, 56.610635656402884]}}, {"type": "Feature", "properties": {"norad_id": 34883, "name": "COSMOS 2251 DEB", "group": "cosmos-2251-debris", "lat": -34.526540560839365, "lon": -119.03254359670025, "alt_km": 661.6768944912574, "timestamp": "2025-12-19T16:54:44.658677+00:00", "meta": {"OBJECT_NAME": "COSMOS 2251 DEB", "OBJECT_ID": "1993-036ACW", "EPOCH": "2025-12-18T13:27:07.209504", "MEAN_MOTION": 14.51672805, "ECCENTRICITY": 0.00951028, "INCLINATION": 74.2022, "RA_OF_ASC_NODE": 51.868, "ARG_OF_PERICENTER": 236.3156, "MEAN_ANOMALY": 122.8912, "EPHEMERIS_TYPE": 0, "CLASSIFICATION_TYPE": "U", "NORAD_CAT_ID": 34883, "ELEMENT_SET_NO": 999, "REV_AT_EPOCH": 86524, "BSTAR": 0.0028915699, "MEAN_MOTION_DOT": 0.00012297, "MEAN_MOTION_DDOT": 0}, "tle": {"line1": "1 34883U 93036ACW 25352.56050011  .00012297  00000+0  28916-2 0  9990", "line2": "2 34883  74.2022  51.8680 0095102 236.3156 122.8912 14.51672805865245"}}, "geometry": {"type": "Point", "coordinates": [-119.03254359670025, -34.526540560839365]}}, {"type": "Feature", "properties": {"norad_id": 34884, "name": "COSMOS 2251 DEB", "group": "cosmos-2251-debris", "lat": 36.05205266161512, "lon": 54.82804446235592, "alt_km": 592.2141258665351, "timestamp": "2025-12-19T16:54:44.658688+00:00", "meta": {"OBJECT_NAME": "COSMOS 2251 DEB", "OBJECT_ID": "1993-036ACX", "EPOCH": "2025-12-18T20:20:15.053280", "MEAN_MOTION": 14.90331593, "ECCENTRICITY": 0.00025983, "INCLINATION": 74.0174, "RA_OF_ASC_NODE": 44.5032, "ARG_OF_PERICENTER": 52.1637, "MEAN_ANOMALY": 68.0631, "EPHEMERIS_TYPE": 0, "CLASSIFICATION_TYPE": "U", "NORAD_CAT_ID": 34884, "ELEMENT_SET_NO": 999, "REV_AT_EPOCH": 87896, "BSTAR": 0.0018119739, "MEAN_MOTION_DOT": 0.00017632, "MEAN_MOTION_DDOT": 0}, "tle": {"line1": "1 34884U 93036ACX 25352.84739645  .00017632  00000+0  18120-2 0  9993", "line2": "2 34884  74.0174  44.5032 0002598  52.1637  68.0631 14.90331593878968"}}, "geometry": {"type": "Point", "coordinates": [54.82804446235592, 36.05205266161512]}}, {"type": "Feature", "properties": {"norad_id": 34885, "name": "COSMOS 2251 DEB", "group": "cosmos-2251-debris", "lat": 32.63209717432533, "lon": -179.52633079444556, "alt_km": 726.4190526252205, "timestamp": "2025-12-19T16:54:44.658698+00:00", "meta": {"OBJECT_NAME": "COSMOS 2251 DEB", "OBJECT_ID": "1993-036ACY", "EPOCH": "2025-12-19T05:59:24.232992", "MEAN_MOTION": 14.51534583, "ECCENTRICITY": 0.00150888, "INCLINATION": 74.0297, "RA_OF_ASC_NODE": 170.7643, "ARG_OF_PERICENTER": 256.0867, "MEAN_ANOMALY": 280.855, "EPHEMERIS_TYPE": 0, "CLASSIFICATION_TYPE": "U", "NORAD_CAT_ID": 34885, "ELEMENT_SET_NO": 999, "REV_AT_EPOCH": 87573, "BSTAR": 0.00050065582, "MEAN_MOTION_DOT": 1.978e-05, "MEAN_MOTION_DDOT": 0}, "tle": {"line1": "1 34885U 93036ACY 25353.24958603  .00001978  00000+0  50066-3 0  9998", "line2": "2 34885  74.0297 170.7643 0015088 256.0867 280.8550 14.51534583875730"}}, "geometry": {"type": "Point", "coordinates": [-179.52633079444556, 32.63209717432533]}}, {"type": "Feature", "properties": {"norad_id": 34886, "name": "COSMOS 2251 DEB", "group": "cosmos-2251-debris", "lat": 26.529990691872964, "lon": -22.381232677098716, "alt_km": 466.86521832055405, "timestamp": "2025-12-19T16:54:44.658709+00:00", "meta": {"OBJECT_NAME": "COSMOS 2251 DEB", "OBJECT_ID": "1993-036ACZ", "EPOCH": "2025-12-19T05:20:10.106880", "MEAN_MOTION": 15.39455892, "ECCENTRICITY": 0.00313946, "INCLINATION": 73.9504, "RA_OF_ASC_NODE": 166.9286, "ARG_OF_PERICENTER": 349.772, "MEAN_ANOMALY": 10.2844, "EPHEMERIS_TYPE": 0, "CLASSIFICATION_TYPE": "U", "NORAD_CAT_ID": 34886, "ELEMENT_SET_NO": 999, "REV_AT_EPOCH": 63098, "BSTAR": 0.0012727733, "MEAN_MOTION_DOT": 0.00051055, "MEAN_MOTION_DDOT": 0}, "tle": {"line1": "1 34886U 93036ACZ 25353.22233920  .00051055  00000+0  12728-2 0  9998", "line2": "2 34886  73.9504 166.9286 0031394 349.7720  10.2844 15.39455892630985"}}, "geometry": {"type": "Point", "coordinates": [-22.381232677098716, 26.529990691872964]}}, {"type": "Feature", "properties": {"norad_id": 34907, "name": "COSMOS 2251 DEB", "group": "cosmos-2251-debris", "lat": -73.2858871839136, "lon": -73.60721419581951, "alt_km": 421.4977901935745, "timestamp": "2025-12-19T16:54:44.658719+00:00", "meta": {"OBJECT_NAME": "COSMOS 2251 DEB", "OBJECT_ID": "1993-036ADC", "EPOCH": "2025-12-18T02:32:53.800800", "MEAN_MOTION": 15.47692445, "ECCENTRICITY": 0.00196953, "INCLINATION": 73.9694, "RA_OF_ASC_NODE": 36.6616, "ARG_OF_PERICENTER": 333.5312, "MEAN_ANOMALY": 26.4892, "EPHEMERIS_TYPE": 0, "CLASSIFICATION_TYPE": "U", "NORAD_CAT_ID": 34907, "ELEMENT_SET_NO": 999, "REV_AT_EPOCH": 88056, "BSTAR": 0.0061125728, "MEAN_MOTION_DOT": 0.00332113, "MEAN_MOTION_DDOT": 0}, "tle": {"line1": "1 34907U 93036ADC 25352.10617825  .00332113  00000+0  61126-2 0  9991", "line2": "2 34907  73.9694  36.6616 0019695 333.5312  26.4892 15.47692445880566"}}, "geometry": {"type": "Point", "coordinates": [-73.60721419581951, -73.2858871839136]}}, {"type": "Feature", "properties": {"norad_id": 34908, "name": "COSMOS 2251 DEB", "group": "cosmos-2251-debris", "lat": 69.90720049056384, "lon": 139.46985487421546, "alt_km": 753.5699846063335, "timestamp": "2025-12-19T16:54:44.658729+00:00", "meta": {"OBJECT_NAME": "COSMOS 2251 DEB", "OBJECT_ID": "1993-036ADD", "EPOCH": "2025-12-19T01:33:09.804384", "MEAN_MOTION": 14.37415965, "ECCENTRICITY": 0.00403405, "INCLINATION": 74.0579, "RA_OF_ASC_NODE": 12.0335, "ARG_OF_PERICENTER": 26.1885, "MEAN_ANOMALY": 5.3138, "EPHEMERIS_TYPE": 0, "CLASSIFICATION_TYPE": "U", "NORAD_CAT_ID": 34908, "ELEMENT_SET_NO": 999, "REV_AT_EPOCH": 87370, "BSTAR": 0.00039207022, "MEAN_MOTION_DOT": 1.157e-05, "MEAN_MOTION_DDOT": 0}, "tle": {"line1": "1 34908U 93036ADD 25353.06469681  .00001157  00000+0  39207-3 0  9990", "line2": "2 34908  74.0579  12.0335 0040340  26.1885   5.3138 14.37415965873703"}}, "geometry": {"type": "Point", "coordinates": [139.46985487421546, 69.90720049056384]}}, {"type": "Feature", "properties": {"norad_id": 34909, "name": "COSMOS 2251 DEB", "group": "cosmos-2251-debris", "lat": 10.859008553822667, "lon": -120.27301273509207, "alt_km": 585.1865908667187, "timestamp": "2025-12-19T16:54:44.658740+00:00", "meta": {"OBJECT_NAME": "COSMOS 2251 DEB", "OBJECT_ID": "1993-036ADE", "EPOCH": "2025-12-19T04:46:35.040288", "MEAN_MOTION": 14.77886614, "ECCENTRICITY": 0.00840861, "INCLINATION": 74.0148, "RA_OF_ASC_NODE": 63.8729, "ARG_OF_PERICENTER": 198.2157, "MEAN_ANOMALY": 161.6003, "EPHEMERIS_TYPE": 0, "CLASSIFICATION_TYPE": "U", "NORAD_CAT_ID": 34909, "ELEMENT_SET_NO": 999, "REV_AT_EPOCH": 66947, "BSTAR": 0.00040134455, "MEAN_MOTION_DOT": 3.028e-05, "MEAN_MOTION_DDOT": 0}, "tle": {"line1": "1 34909U 93036ADE 25353.19901667  .00003028  00000+0  40134-3 0  9990", "line2": "2 34909  74.0148  63.8729 0084086 198.2157 161.6003 14.77886614669476"}}, "geometry": {"type": "Point", "coordinates": [-120.27301273509207, 10.859008553822667]}}]}